IRIDIUM 119             
1 42959U 17061E   23302.85605101  .00000551  00000+0  18968-3 0  9995
2 42959  86.3965  66.9889 0001707  93.9001 266.2390 14.34218964317024
IRIDIUM 107             
1 42960U 17061F   23303.08437921  .00000566  00000+0  19512-3 0  9998
2 42960  86.3967  66.9090 0001869  98.8799 261.2608 14.34220328317078
IRIDIUM 132             
1 42961U 17061G   23302.88141822  .00000567  00000+0  19552-3 0  9993
2 42961  86.3966  66.9798 0001829  96.5039 263.6365 14.34220484317036
IRIDIUM 136             
1 42962U 17061H   23302.84336325  .00000564  00000+0  19440-3 0  9997
2 42962  86.3965  66.9979 0001915  87.6453 272.4962 14.34219494317045
IRIDIUM 139             
1 42963U 17061J   23302.84970907  .00000567  00000+0  19536-3 0  9997
2 42963  86.3967  67.0420 0001894  98.0377 262.1034 14.34218743317051
IRIDIUM 125             
1 42964U 17061K   23302.90679219  .00000546  00000+0  18805-3 0  9992
2 42964  86.3970  67.0617 0001781  95.6368 264.5031 14.34219241317071
IRIDIUM 135             
1 43070U 17083A   23302.88091583 -.00000011  00000+0 -11128-4 0  9995
2 43070  86.4010   3.7847 0002357  99.4046 260.7416 14.34215643306360
IRIDIUM 138             
1 43071U 17083B   23302.69698102  .00000472  00000+0  16146-3 0  9998
2 43071  86.4002   3.6080 0001947  92.7728 267.3691 14.34218698306324
